NORAD_CAT_ID,OBJECT_NAME,OBJECT_TYPE,EPOCH,MEAN_MOTION,ECCENTRICITY,INCLINATION,RA_OF_ASC_NODE,ARG_OF_PERICENTER,MEAN_ANOMALY,BSTAR,MEAN_MOTION_DOT,MEAN_MOTION_DDOT,TLE_LINE0,TLE_LINE1,TLE_LINE2,SEMIMAJOR_AXIS,PERIOD,APOGEE,PERIGEE,DECAYED
52495.0,STARLINK-3905,PAYLOAD,2023-01-30 11:06:38,15.08835217,7.77e-05,53.2149,100.8693,51.336,308.7701,-3.2666e-06,-3.4e-06,0.0,0 STARLINK-3905,1 52495U 22049AW  23030.46294395 -.00000340  00000-0 -32666-5 0  9999,2 52495  53.2149 100.8693 0000777  51.3360 308.7701 15.08835217 41323,6917.895,95.438,540.298,539.222,0.0
52495.0,STARLINK-3905,PAYLOAD,2023-01-31 14:08:10,15.08846647,0.0001079,53.2146,95.8112,108.8696,251.2413,6.6841e-05,7.76e-06,0.0,0 STARLINK-3905,1 52495U 22049AW  23031.58901383  .00000776  00000-0  66841-4 0  9997,2 52495  53.2146  95.8112 0001079 108.8696 251.2413 15.08846647 41494,6917.86,95.437,540.472,538.979,0.0
52495.0,STARLINK-3905,PAYLOAD,2023-02-01 04:26:39,15.08837135,0.0001044,53.2137,93.1344,111.7944,248.3159,5.9626e-05,6.61e-06,0.0,0 STARLINK-3905,1 52495U 22049AW  23032.18518109  .00000661  00000-0  59626-4 0  9990,2 52495  53.2137  93.1344 0001044 111.7944 248.3159 15.08837135 41589,6917.889,95.438,540.476,539.032,0.0
52495.0,STARLINK-3905,PAYLOAD,2023-02-01 10:48:11,15.08841883,0.0001144,53.2155,91.9472,106.2513,253.8605,8.8264e-05,1.117e-05,0.0,0 STARLINK-3905,1 52495U 22049AW  23032.45013661  .00001117  00000-0  88264-4 0  9990,2 52495  53.2155  91.9472 0001144 106.2513 253.8605 15.08841883 41468,6917.875,95.437,540.531,538.948,0.0
52495.0,STARLINK-3905,PAYLOAD,2023-02-02 09:03:36,15.08835905,0.0001354,53.217,87.7845,105.9101,254.204,-0.0001135,-2.094e-05,0.0,0 STARLINK-3905,1 52495U 22049AW  23033.37750809 -.00002094  00000-0 -11350-3 0  9992,2 52495  53.2170  87.7845 0001354 105.9101 254.2040 15.08835905 41606,6917.893,95.438,540.695,538.821,0.0
52495.0,STARLINK-3905,PAYLOAD,2023-02-03 12:05:09,15.0883941,0.0001461,53.2163,82.7284,107.059,253.0562,4.3755e-06,-2.18e-06,0.0,0 STARLINK-3905,1 52495U 22049AW  23034.50358708 -.00000218  00000-0  43755-5 0  9991,2 52495  53.2163  82.7284 0001461 107.0590 253.0562 15.08839410 41931,6917.882,95.438,540.758,538.736,0.0
52495.0,STARLINK-3905,PAYLOAD,2023-02-04 07:09:46,15.08848478,0.0001368,53.2164,79.1602,94.2587,265.8561,0.00026183,3.882e-05,0.0,0 STARLINK-3905,1 52495U 22049AW  23035.29845359  .00003882  00000-0  26183-3 0  9994,2 52495  53.2164  79.1602 0001368  94.2587 265.8561 15.08848478 42053,6917.854,95.437,540.666,538.773,0.0
52495.0,STARLINK-3905,PAYLOAD,2023-02-04 11:55:55,15.08858859,0.0001288,53.2152,78.2667,91.5122,268.6017,0.00027818,4.144e-05,0.0,0 STARLINK-3905,1 52495U 22049AW  23035.49716787  .00004144  00000-0  27818-3 0  9996,2 52495  53.2152  78.2667 0001288  91.5122 268.6017 15.08858859 41923,6917.823,95.436,540.579,538.797,0.0
52495.0,STARLINK-3905,PAYLOAD,2023-02-04 19:52:52,15.08845745,0.0001614,53.2157,76.7808,87.9367,272.1809,0.00016507,2.34e-05,0.0,0 STARLINK-3905,1 52495U 22049AW  23035.82838059  .00002340  00000-0  16507-3 0  9999,2 52495  53.2157  76.7808 0001614  87.9367 272.1809 15.08845745 42134,6917.863,95.437,540.844,538.611,0.0
52495.0,STARLINK-3905,PAYLOAD,2023-02-05 02:14:25,15.08838516,0.000215,53.2152,75.5911,86.8972,273.2266,2.5626e-05,1.2e-06,0.0,0 STARLINK-3905,1 52495U 22049AW  23036.09334618  .00000120  00000-0  25626-4 0  9998,2 52495  53.2152  75.5911 0002150  86.8972 273.2266 15.08838516 42178,6917.885,95.438,541.237,538.263,0.0
52495.0,STARLINK-3905,PAYLOAD,2023-02-05 10:11:20,15.08835295,0.0001855,53.2161,74.1055,87.3267,272.7937,-2.1898e-05,-6.37e-06,0.0,0 STARLINK-3905,1 52495U 22049AW  23036.42454770 -.00000637  00000-0 -21898-4 0  9999,2 52495  53.2161  74.1055 0001855  87.3267 272.7937 15.08835295 42064,6917.895,95.438,541.043,538.477,0.0
52495.0,STARLINK-3905,PAYLOAD,2023-02-05 19:43:39,15.08839592,0.0001728,53.2158,72.3223,78.6894,281.4292,-7.4395e-05,-1.472e-05,0.0,0 STARLINK-3905,1 52495U 22049AW  23036.82198462 -.00001472  00000-0 -74395-4 0  9994,2 52495  53.2158  72.3223 0001728  78.6894 281.4292 15.08839592 42127,6917.882,95.438,540.942,538.551,0.0
52495.0,STARLINK-3905,PAYLOAD,2023-02-06 11:37:30,15.0884826,0.0001628,53.2147,69.3457,87.9266,272.1913,5.2381e-05,5.46e-06,0.0,0 STARLINK-3905,1 52495U 22049AW  23037.48438001  .00000546  00000-0  52381-4 0  9993,2 52495  53.2147  69.3457 0001628  87.9266 272.1913 15.08848260 42382,6917.855,95.437,540.846,538.594,0.0
52495.0,STARLINK-3905,PAYLOAD,2023-02-06 19:34:26,15.08849996,0.0001645,53.2146,67.8591,87.3455,272.7725,0.00010704,1.416e-05,0.0,0 STARLINK-3905,1 52495U 22049AW  23037.81557904  .00001416  00000-0  10704-3 0  9993,2 52495  53.2146  67.8591 0001645  87.3455 272.7725 15.08849996 42278,6917.85,95.437,540.853,538.577,0.0
52495.0,STARLINK-3905,PAYLOAD,2023-02-07 06:42:08,15.08844954,0.0001682,53.2162,65.778,97.158,262.9603,0.00035756,5.408e-05,0.0,0 STARLINK-3905,1 52495U 22049AW  23038.27926333  .00005408  00000-0  35756-3 0  9999,2 52495  53.2162  65.7780 0001682  97.1580 262.9603 15.08844954 42503,6917.865,95.437,540.894,538.567,0.0
52495.0,STARLINK-3905,PAYLOAD,2023-02-07 11:28:17,15.08854321,0.0001793,53.2139,64.8834,101.4317,258.6877,0.00037038,5.614e-05,0.0,0 STARLINK-3905,1 52495U 22049AW  23038.47797800  .00005614  00000-0  37038-3 0  9990,2 52495  53.2139  64.8834 0001793 101.4317 258.6877 15.08854321 42376,6917.837,95.437,540.942,538.461,0.0
52495.0,STARLINK-3905,PAYLOAD,2023-02-08 08:08:18,15.0884498,0.0001746,53.215,61.0181,109.6107,250.5074,0.00017596,2.514e-05,0.0,0 STARLINK-3905,1 52495U 22049AW  23039.33910321  .00002514  00000-0  17596-3 0  9994,2 52495  53.2150  61.0181 0001746 109.6107 250.5074 15.08844980 42660,6917.865,95.437,540.938,538.522,0.0
52495.0,STARLINK-3905,PAYLOAD,2023-02-08 11:19:04,15.08849851,0.0001697,53.2148,60.4224,111.0077,249.1097,0.00032332,4.863e-05,0.0,0 STARLINK-3905,1 52495U 22049AW  23039.47158147  .00004863  00000-0  32332-3 0  9993,2 52495  53.2148  60.4224 0001697 111.0077 249.1097 15.08849851 42522,6917.85,95.437,540.889,538.541,0.0
52495.0,STARLINK-3905,PAYLOAD,2023-02-09 04:48:19,15.08833323,0.0001966,53.2151,57.1489,114.9314,245.1883,0.00025661,3.797e-05,0.0,0 STARLINK-3905,1 52495U 22049AW  23040.20022888  .00003797  00000-0  25661-3 0  9990,2 52495  53.2151  57.1489 0001966 114.9314 245.1883 15.08833323 42792,6917.901,95.438,541.126,538.406,0.0
52495.0,STARLINK-3905,PAYLOAD,2023-02-09 11:09:52,15.08845279,0.0001416,53.2153,55.963,89.2136,270.9019,0.00078268,0.00012192,0.0,0 STARLINK-3905,1 52495U 22049AW  23040.46518977  .00012192  00000-0  78268-3 0  9997,2 52495  53.2153  55.9630 0001416  89.2136 270.9019 15.08845279 42671,6917.864,95.437,540.709,538.75,0.0
52495.0,STARLINK-3905,PAYLOAD,2023-02-09 17:31:25,15.08831203,0.0001759,53.2158,54.7712,77.1719,282.9469,0.00053269,8.198e-05,0.0,0 STARLINK-3905,1 52495U 22049AW  23040.73015307  .00008198  00000-0  53269-3 0  9991,2 52495  53.2158  54.7712 0001759  77.1719 282.9469 15.08831203 42716,6917.907,95.438,540.989,538.555,0.0
52495.0,STARLINK-3905,PAYLOAD,2023-02-10 01:28:21,15.08829817,0.0001358,53.2162,53.2853,95.0203,265.0944,0.00013004,1.782e-05,0.0,0 STARLINK-3905,1 52495U 22049AW  23041.06135614  .00001782  00000-0  13004-3 0  9997,2 52495  53.2162  53.2853 0001358  95.0203 265.0944 15.08829817 42924,6917.912,95.438,540.716,538.837,0.0
52495.0,STARLINK-3905,PAYLOAD,2023-02-10 06:14:30,15.08847319,0.0001753,53.2169,52.3979,104.8637,255.255,0.00045376,6.942e-05,0.0,0 STARLINK-3905,1 52495U 22049AW  23041.26007343  .00006942  00000-0  45376-3 0  9996,2 52495  53.2169  52.3979 0001753 104.8637 255.2550 15.08847319 42953,6917.858,95.437,540.936,538.51,0.0
52495.0,STARLINK-3905,PAYLOAD,2023-02-11 06:05:17,15.08841831,0.00015,53.2167,47.9358,101.3185,258.7976,0.00018074,2.59e-05,0.0,0 STARLINK-3905,1 52495U 22049AW  23042.25367481  .00002590  00000-0  18074-3 0  9998,2 52495  53.2167  47.9358 0001500 101.3185 258.7976 15.08841831 43103,6917.875,95.437,540.777,538.702,0.0
52495.0,STARLINK-3905,PAYLOAD,2023-02-11 07:40:40,15.08844032,0.0001348,53.2164,47.6397,93.2741,266.8405,0.00022667,3.322e-05,0.0,0 STARLINK-3905,1 52495U 22049AW  23042.31991448  .00003322  00000-0  22667-3 0  9998,2 52495  53.2164  47.6397 0001348  93.2741 266.8405 15.08844032 42952,6917.868,95.437,540.666,538.801,0.0
52495.0,STARLINK-3905,PAYLOAD,2023-02-12 07:31:27,15.08845888,0.0001013,53.2164,43.1767,82.1227,277.988,0.0001127,1.507e-05,0.0,0 STARLINK-3905,1 52495U 22049AW  23043.31351341  .00001507  00000-0  11270-3 0  9992,2 52495  53.2164  43.1767 0001013  82.1227 277.9880 15.08845888 43264,6917.862,95.437,540.428,539.027,0.0
52495.0,STARLINK-3905,PAYLOAD,2023-02-12 17:03:46,15.08843414,8.45e-05,53.2153,41.394,114.9848,245.1231,0.00021954,3.208e-05,0.0,0 STARLINK-3905,1 52495U 22049AW  23043.71095682  .00003208  00000-0  21954-3 0  9999,2 52495  53.2153  41.3940 0000845 114.9848 245.1231 15.08843414 43327,6917.87,95.437,540.32,539.15,0.0
52495.0,STARLINK-3905,PAYLOAD,2023-02-13 08:57:37,15.08847659,0.0001469,53.2146,38.4192,90.2328,269.8832,0.00012927,1.77e-05,0.0,0 STARLINK-3905,1 52495U 22049AW  23044.37335469  .00001770  00000-0  12927-3 0  9994,2 52495  53.2146  38.4192 0001469  90.2328 269.8832 15.08847659 43265,6917.857,95.437,540.738,538.706,0.0
52495.0,STARLINK-3905,PAYLOAD,2023-02-13 16:54:34,15.08835832,0.0001434,53.2158,36.9311,84.0863,276.0292,5.487e-05,5.85e-06,0.0,0 STARLINK-3905,1 52495U 22049AW  23044.70456167  .00000585  00000-0  54870-4 0  9997,2 52495  53.2158  36.9311 0001434  84.0863 276.0292 15.08835832 43474,6917.893,95.438,540.75,538.766,0.0
52495.0,STARLINK-3905,PAYLOAD,2023-02-14 10:23:48,15.08850424,0.0001291,53.2166,33.6615,76.0589,284.0547,0.00026196,3.885e-05,0.0,0 STARLINK-3905,1 52495U 22049AW  23045.43319587  .00003885  00000-0  26196-3 0  9997,2 52495  53.2166  33.6615 0001291  76.0589 284.0547 15.08850424 43589,6917.849,95.437,540.607,538.82,0.0
